start=new Date('2022-05-04T00:00:00.000Z').valueOf();
sats=[{"MEAN_MOTION":"15.06394078","PERIOD":"95.593","TLE_LINE1":"1 45190U 20012N   22123.58362808  .00003058  00000-0  22413-3 0  9995","BSTAR":"0.00022413000000","OBJECT_ID":"2020-012N","OBJECT_NAME":"STARLINK-1234","GP_ID":"202632081","NORAD_CAT_ID":"45190","PERIAPSIS":"545.610","LAUNCH_DATE":"2020-02-17","DECAY_DATE":null,"OBJECT_TYPE":"PAYLOAD","INCLINATION":"53.0561","FILE":"3427573","MEAN_ANOMALY":"322.9368","REF_FRAME":"TEME","EPOCH":"2022-05-03T14:00:25.466112","CLASSIFICATION_TYPE":"U","COUNTRY_CODE":"US","MEAN_MOTION_DDOT":"0.0000000000000","ECCENTRICITY":"0.00023410","SITE":"AFETR","EPHEMERIS_TYPE":"0","RCS_SIZE":"LARGE","TIME_SYSTEM":"UTC","ARG_OF_PERICENTER":"37.1783","REV_AT_EPOCH":"12336","APOAPSIS":"548.853","MEAN_ELEMENT_THEORY":"SGP4","RA_OF_ASC_NODE":"198.8829","TLE_LINE2":"2 45190  53.0561 198.8829 0002341  37.1783 322.9368 15.06394078123366","CENTER_NAME":"EARTH","SEMIMAJOR_AXIS":"6925.367","MEAN_MOTION_DOT":"0.00003058","ELEMENT_SET_NO":"999"},{"SITE":"AFETR","EPHEMERIS_TYPE":"0","ECCENTRICITY":"0.00011250","MEAN_MOTION_DDOT":"0.0000000000000","COUNTRY_CODE":"US","CLASSIFICATION_TYPE":"U","ARG_OF_PERICENTER":"41.1472","TIME_SYSTEM":"UTC","RCS_SIZE":"LARGE","TLE_LINE2":"2 45191  53.0546 237.7337 0001125  41.1472 318.9602 15.06423177120159","CENTER_NAME":"EARTH","RA_OF_ASC_NODE":"237.7337","APOAPSIS":"547.922","MEAN_ELEMENT_THEORY":"SGP4","REV_AT_EPOCH":"12015","ELEMENT_SET_NO":"999","MEAN_MOTION_DOT":"0.00009263","SEMIMAJOR_AXIS":"6925.278","PERIOD":"95.591","MEAN_MOTION":"15.06423177","OBJECT_ID":"2020-012P","BSTAR":"0.00063953000000","TLE_LINE1":"1 45191U 20012P   22123.83794047  .00009263  00000-0  63953-3 0  9996","FILE":"3427573","INCLINATION":"53.0546","OBJECT_TYPE":"PAYLOAD","DECAY_DATE":null,"LAUNCH_DATE":"2020-02-17","PERIAPSIS":"546.363","NORAD_CAT_ID":"45191","GP_ID":"202632835","OBJECT_NAME":"STARLINK-1236","REF_FRAME":"TEME","EPOCH":"2022-05-03T20:06:38.056608","MEAN_ANOMALY":"318.9602"},{"APOAPSIS":"548.409","MEAN_ELEMENT_THEORY":"SGP4","CENTER_NAME":"EARTH","TLE_LINE2":"2 45192  53.0533 238.4288 0001650  61.7890 298.3266 15.06382918122925","RA_OF_ASC_NODE":"238.4288","REV_AT_EPOCH":"12292","ELEMENT_SET_NO":"999","MEAN_MOTION_DOT":"-0.00001333","SEMIMAJOR_AXIS":"6925.401","ECCENTRICITY":"0.00016500","SITE":"AFETR","EPHEMERIS_TYPE":"0","CLASSIFICATION_TYPE":"U","MEAN_MOTION_DDOT":"0.0000000000000","COUNTRY_CODE":"US","TIME_SYSTEM":"UTC","RCS_SIZE":"LARGE","ARG_OF_PERICENTER":"61.7890","DECAY_DATE":null,"FILE":"3427573","INCLINATION":"53.0533","OBJECT_TYPE":"PAYLOAD","LAUNCH_DATE":"2020-02-17","PERIAPSIS":"546.123","NORAD_CAT_ID":"45192","GP_ID":"202633086","OBJECT_NAME":"STARLINK-1237","REF_FRAME":"TEME","EPOCH":"2022-05-03T16:18:25.461504","MEAN_ANOMALY":"298.3266","MEAN_MOTION":"15.06382918","PERIOD":"95.593","OBJECT_ID":"2020-012Q","BSTAR":"-0.00007061000000","TLE_LINE1":"1 45192U 20012Q   22123.67946136 -.00001333  00000-0 -70610-4 0  9998"},{"PERIOD":"95.592","MEAN_MOTION":"15.06397152","BSTAR":"0.00011903000000","OBJECT_ID":"2020-012R","TLE_LINE1":"1 45193U 20012R   22123.80109733  .00001492  00000-0  11903-3 0  9991","FILE":"3427573","INCLINATION":"53.0550","OBJECT_TYPE":"PAYLOAD","DECAY_DATE":null,"PERIAPSIS":"545.997","LAUNCH_DATE":"2020-02-17","GP_ID":"202631834","OBJECT_NAME":"STARLINK-1239","NORAD_CAT_ID":"45193","REF_FRAME":"TEME","EPOCH":"2022-05-03T19:13:34.809312","MEAN_ANOMALY":"311.3842","SITE":"AFETR","EPHEMERIS_TYPE":"0","ECCENTRICITY":"0.00017690","COUNTRY_CODE":"US","MEAN_MOTION_DDOT":"0.0000000000000","CLASSIFICATION_TYPE":"U","ARG_OF_PERICENTER":"48.7299","TIME_SYSTEM":"UTC","RCS_SIZE":"LARGE","CENTER_NAME":"EARTH","TLE_LINE2":"2 45193  53.0550 237.8960 0001769  48.7299 311.3842 15.06397152122881","RA_OF_ASC_NODE":"237.8960","APOAPSIS":"548.447","MEAN_ELEMENT_THEORY":"SGP4","REV_AT_EPOCH":"12288","ELEMENT_SET_NO":"999","MEAN_MOTION_DOT":"0.00001492","SEMIMAJOR_AXIS":"6925.357"},{"ELEMENT_SET_NO":"999","MEAN_MOTION_DOT":"-0.00000172","SEMIMAJOR_AXIS":"6925.382","TLE_LINE2":"2 45194  53.0554 238.1874 0001842  48.0698 312.0447 15.06389148122821","CENTER_NAME":"EARTH","RA_OF_ASC_NODE":"238.1874","MEAN_ELEMENT_THEORY":"SGP4","APOAPSIS":"548.522","REV_AT_EPOCH":"12282","ARG_OF_PERICENTER":"48.0698","TIME_SYSTEM":"UTC","RCS_SIZE":"LARGE","SITE":"AFETR","EPHEMERIS_TYPE":"0","ECCENTRICITY":"0.00018420","COUNTRY_CODE":"US","MEAN_MOTION_DDOT":"0.0000000000000","CLASSIFICATION_TYPE":"U","MEAN_ANOMALY":"312.0447","EPOCH":"2022-05-03T17:43:20.979264","REF_FRAME":"TEME","INCLINATION":"53.0554","FILE":"3427573","OBJECT_TYPE":"PAYLOAD","DECAY_DATE":null,"PERIAPSIS":"545.971","LAUNCH_DATE":"2020-02-17","OBJECT_NAME":"STARLINK-1240","GP_ID":"202631582","NORAD_CAT_ID":"45194","BSTAR":"0.00000735660000","OBJECT_ID":"2020-012S","TLE_LINE1":"1 45194U 20012S   22123.73843726 -.00000172  00000-0  73566-5 0  9991","PERIOD":"95.593","MEAN_MOTION":"15.06389148"},{"INCLINATION":"53.0523","FILE":"3427573","OBJECT_TYPE":"PAYLOAD","DECAY_DATE":null,"PERIAPSIS":"539.510","LAUNCH_DATE":"2020-02-17","GP_ID":"202632336","NORAD_CAT_ID":"45195","OBJECT_NAME":"STARLINK-1241","EPOCH":"2022-05-03T17:59:13.013088","REF_FRAME":"TEME","MEAN_ANOMALY":"77.9371","PERIOD":"95.444","MEAN_MOTION":"15.08734715","BSTAR":"0.00086073000000","OBJECT_ID":"2020-012T","TLE_LINE1":"1 45195U 20012T   22123.74945617  .00013399  00000-0  86073-3 0  9994","TLE_LINE2":"2 45195  53.0523 237.6127 0000806 282.1528  77.9371 15.08734715122936","CENTER_NAME":"EARTH","RA_OF_ASC_NODE":"237.6127","APOAPSIS":"540.625","MEAN_ELEMENT_THEORY":"SGP4","REV_AT_EPOCH":"12293","MEAN_MOTION_DOT":"0.00013399","ELEMENT_SET_NO":"999","SEMIMAJOR_AXIS":"6918.202","SITE":"AFETR","EPHEMERIS_TYPE":"0","ECCENTRICITY":"0.00008060","MEAN_MOTION_DDOT":"0.0000000000000","COUNTRY_CODE":"US","CLASSIFICATION_TYPE":"U","ARG_OF_PERICENTER":"282.1528","TIME_SYSTEM":"UTC","RCS_SIZE":"LARGE"},{"SEMIMAJOR_AXIS":"6925.324","ELEMENT_SET_NO":"999","MEAN_MOTION_DOT":"0.00005626","REV_AT_EPOCH":"12298","APOAPSIS":"548.517","MEAN_ELEMENT_THEORY":"SGP4","RA_OF_ASC_NODE":"237.9604","TLE_LINE2":"2 45196  53.0552 237.9604 0001917  52.7916 307.3247 15.06407904122980","CENTER_NAME":"EARTH","RCS_SIZE":"LARGE","TIME_SYSTEM":"UTC","ARG_OF_PERICENTER":"52.7916","CLASSIFICATION_TYPE":"U","COUNTRY_CODE":"US","MEAN_MOTION_DDOT":"0.0000000000000","ECCENTRICITY":"0.00019170","SITE":"AFETR","EPHEMERIS_TYPE":"0","REF_FRAME":"TEME","EPOCH":"2022-05-03T18:52:20.058528","MEAN_ANOMALY":"307.3247","GP_ID":"202632587","NORAD_CAT_ID":"45196","OBJECT_NAME":"STARLINK-1244","PERIAPSIS":"545.862","LAUNCH_DATE":"2020-02-17","DECAY_DATE":null,"OBJECT_TYPE":"PAYLOAD","FILE":"3427573","INCLINATION":"53.0552","TLE_LINE1":"1 45196U 20012U   22123.78634327  .00005626  00000-0  39618-3 0  9999","OBJECT_ID":"2020-012U","BSTAR":"0.00039618000000","MEAN_MOTION":"15.06407904","PERIOD":"95.592"},{"TLE_LINE1":"1 45197U 20012V   22123.84163670  .00021438  00000-0  14525-2 0  9993","BSTAR":"0.00145250000000","OBJECT_ID":"2020-012V","PERIOD":"95.590","MEAN_MOTION":"15.06431080","EPOCH":"2022-05-03T20:11:57.410880","REF_FRAME":"TEME","MEAN_ANOMALY":"306.6394","LAUNCH_DATE":"2020-02-17","PERIAPSIS":"545.870","GP_ID":"202631335","OBJECT_NAME":"STARLINK-1269","NORAD_CAT_ID":"45197","FILE":"3427573","INCLINATION":"53.0541","OBJECT_TYPE":"PAYLOAD","DECAY_DATE":null,"ARG_OF_PERICENTER":"53.4760","TIME_SYSTEM":"UTC","RCS_SIZE":"LARGE","MEAN_MOTION_DDOT":"0.0000000000000","COUNTRY_CODE":"US","CLASSIFICATION_TYPE":"U","SITE":"AFETR","EPHEMERIS_TYPE":"0","ECCENTRICITY":"0.00018020","SEMIMAJOR_AXIS":"6925.253","MEAN_MOTION_DOT":"0.00021438","ELEMENT_SET_NO":"999","REV_AT_EPOCH":"12291","TLE_LINE2":"2 45197  53.0541 237.7176 0001802  53.4760 306.6394 15.06431080122919","CENTER_NAME":"EARTH","RA_OF_ASC_NODE":"237.7176","APOAPSIS":"548.366","MEAN_ELEMENT_THEORY":"SGP4"},{"BSTAR":"0.00020580000000","OBJECT_ID":"2020-012W","TLE_LINE1":"1 45198U 20012W   22123.56703105  .00002785  00000-0  20580-3 0  9999","PERIOD":"95.592","MEAN_MOTION":"15.06401842","REF_FRAME":"TEME","EPOCH":"2022-05-03T13:36:31.482720","MEAN_ANOMALY":"306.6183","FILE":"3426996","INCLINATION":"53.0539","OBJECT_TYPE":"PAYLOAD","DECAY_DATE":null,"LAUNCH_DATE":"2020-02-17","PERIAPSIS":"546.143","GP_ID":"202575024","OBJECT_NAME":"STARLINK-1154","NORAD_CAT_ID":"45198","ARG_OF_PERICENTER":"53.4947","TIME_SYSTEM":"UTC","RCS_SIZE":"LARGE","EPHEMERIS_TYPE":"0","SITE":"AFETR","ECCENTRICITY":"0.00015380","MEAN_MOTION_DDOT":"0.0000000000000","COUNTRY_CODE":"US","CLASSIFICATION_TYPE":"U","ELEMENT_SET_NO":"999","MEAN_MOTION_DOT":"0.00002785","SEMIMAJOR_AXIS":"6925.343","TLE_LINE2":"2 45198  53.0539 218.9385 0001538  53.4947 306.6183 15.06401842122248","CENTER_NAME":"EARTH","RA_OF_ASC_NODE":"218.9385","APOAPSIS":"548.273","MEAN_ELEMENT_THEORY":"SGP4","REV_AT_EPOCH":"12224"},{"MEAN_ELEMENT_THEORY":"SGP4","APOAPSIS":"548.273","RA_OF_ASC_NODE":"218.6219","TLE_LINE2":"2 45199  53.0540 218.6219 0001535  71.8785 288.2372 15.06401088123197","CENTER_NAME":"EARTH","REV_AT_EPOCH":"12319","MEAN_MOTION_DOT":"0.00002502","ELEMENT_SET_NO":"999","SEMIMAJOR_AXIS":"6925.345","ECCENTRICITY":"0.00015350","EPHEMERIS_TYPE":"0","SITE":"AFETR","CLASSIFICATION_TYPE":"U","MEAN_MOTION_DDOT":"0.0000000000000","COUNTRY_CODE":"US","RCS_SIZE":"LARGE","TIME_SYSTEM":"UTC","ARG_OF_PERICENTER":"71.8785","DECAY_DATE":null,"OBJECT_TYPE":"PAYLOAD","FILE":"3427573","INCLINATION":"53.0540","GP_ID":"202632836","OBJECT_NAME":"STARLINK-1197","NORAD_CAT_ID":"45199","LAUNCH_DATE":"2020-02-17","PERIAPSIS":"546.147","EPOCH":"2022-05-03T15:17:22.518816","REF_FRAME":"TEME","MEAN_ANOMALY":"288.2372","MEAN_MOTION":"15.06401088","PERIOD":"95.592","BSTAR":"0.00018683000000","OBJECT_ID":"2020-012X","TLE_LINE1":"1 45199U 20012X   22123.63706619  .00002502  00000-0  18683-3 0  9999"}];
